{"type": "FeatureCollection", "features": [ {"type": "Feature", "properties": {"norad_id": 30629, "name": "FENGYUN 1C DEB", "group": "fengyun-1c-debris", "lat": 57.4135816175731, "lon": -86.49389990789186, "alt_km": 689.0313165072857, "timestamp": "2025-12-09T04:51:47.770845+00:00", "meta": {"OBJECT_NAME": "FENGYUN 1C DEB", "OBJECT_ID": "1999-025ANL", "EPOCH": "2025-12-08T19:01:07.483872", "MEAN_MOTION": 14.59396259, "ECCENTRICITY": 0.000776, "INCLINATION": 99.2516, "RA_OF_ASC_NODE": 78.2755, "ARG_OF_PERICENTER": 207.638, "MEAN_ANOMALY": 279.9437, "EPHEMERIS_TYPE": 0, "CLASSIFICATION_TYPE": "U", "NORAD_CAT_ID": 30629, "ELEMENT_SET_NO": 999, "REV_AT_EPOCH": 97832, "BSTAR": 0.0046079, "MEAN_MOTION_DOT": 0.00021845, "MEAN_MOTION_DDOT": 0}, "tle": {"line1": "1 30629U 99025ANL 25342.79244773  .00021845  00000+0  46079-2 0  9991", "line2": "2 30629  99.2516  78.2755 0007760 207.6380 279.9437 14.59396259978327"}}, "geometry": {"type": "Point", "coordinates": [-86.49389990789186, 57.4135816175731]}}, {"type": "Feature", "properties": {"norad_id": 30630, "name": "FENGYUN 1C DEB", "group": "fengyun-1c-debris", "lat": -12.4996128168935, "lon": -25.9555837572778, "alt_km": 827.4941718757145, "timestamp": "2025-12-09T04:51:47.770856+00:00", "meta": {"OBJECT_NAME": "FENGYUN 1C DEB", "OBJECT_ID": "1999-025ANM", "EPOCH": "2025-12-08T17:55:51.522240", "MEAN_MOTION": 14.22355495, "ECCENTRICITY": 0.0025986, "INCLINATION": 99.1728, "RA_OF_ASC_NODE": 155.6235, "ARG_OF_PERICENTER": 85.8668, "MEAN_ANOMALY": 295.2524, "EPHEMERIS_TYPE": 0, "CLASSIFICATION_TYPE": "U", "NORAD_CAT_ID": 30630, "ELEMENT_SET_NO": 999, "REV_AT_EPOCH": 97156, "BSTAR": 0.0015742, "MEAN_MOTION_DOT": 3.468e-05, "MEAN_MOTION_DDOT": 0}, "tle": {"line1": "1 30630U 99025ANM 25342.74712410  .00003468  00000+0  15742-2 0  9990", "line2": "2 30630  99.1728 155.6235 0025986  85.8668 295.2524 14.22355495971565"}}, "geometry": {"type": "Point", "coordinates": [-25.9555837572778, -12.4996128168935]}}, {"type": "Feature", "properties": {"norad_id": 30632, "name": "FENGYUN 1C DEB", "group": "fengyun-1c-debris", "lat": -50.336460293634396, "lon": -76.48749178836131, "alt_km": 685.1017133622736, "timestamp": "2025-12-09T04:51:47.770869+00:00", "meta": {"OBJECT_NAME": "FENGYUN 1C DEB", "OBJECT_ID": "1999-025ANP", "EPOCH": "2025-12-08T08:21:23.336928", "MEAN_MOTION": 14.62496735, "ECCENTRICITY": 0.00153628, "INCLINATION": 98.824, "RA_OF_ASC_NODE": 113.3983, "ARG_OF_PERICENTER": 182.3136, "MEAN_ANOMALY": 232.5413, "EPHEMERIS_TYPE": 0, "CLASSIFICATION_TYPE": "U", "NORAD_CAT_ID": 30632, "ELEMENT_SET_NO": 999, "REV_AT_EPOCH": 97627, "BSTAR": 0.0045090376, "MEAN_MOTION_DOT": 0.00022915, "MEAN_MOTION_DDOT": 0}, "tle": {"line1": "1 30632U 99025ANP 25342.34818677  .00022915  00000+0  45090-2 0  9997", "line2": "2 30632  98.8240 113.3983 0015362 182.3136 232.5413 14.62496735976274"}}, "geometry": {"type": "Point", "coordinates": [-76.48749178836131, -50.336460293634396]}}, {"type": "Feature", "properties": {"norad_id": 30633, "name": "FENGYUN 1C DEB", "group": "fengyun-1c-debris", "lat": 39.98443472007275, "lon": 35.59573685421586, "alt_km": 936.836398020414, "timestamp": "2025-12-09T04:51:47.770879+00:00", "meta": {"OBJECT_NAME": "FENGYUN 1C DEB", "OBJECT_ID": "1999-025ANQ", "EPOCH": "2025-12-08T14:49:12.971136", "MEAN_MOTION": 14.04371948, "ECCENTRICITY": 0.0130551, "INCLINATION": 98.4204, "RA_OF_ASC_NODE": 207.9171, "ARG_OF_PERICENTER": 271.9476, "MEAN_ANOMALY": 152.0115, "EPHEMERIS_TYPE": 0, "CLASSIFICATION_TYPE": "U", "NORAD_CAT_ID": 30633, "ELEMENT_SET_NO": 999, "REV_AT_EPOCH": 95834, "BSTAR": 0.0015391, "MEAN_MOTION_DOT": 2.603e-05, "MEAN_MOTION_DDOT": 0}, "tle": {"line1": "1 30633U 99025ANQ 25342.61751124  .00002603  00000+0  15391-2 0  9994", "line2": "2 30633  98.4204 207.9171 0130551 271.9476 152.0115 14.04371948958347"}}, "geometry": {"type": "Point", "coordinates": [35.59573685421586, 39.98443472007275]}}, {"type": "Feature", "properties": {"norad_id": 30634, "name": "FENGYUN 1C DEB", "group": "fengyun-1c-debris", "lat": 74.62072669587259, "lon": -70.62136699180948, "alt_km": 776.5072342495687, "timestamp": "2025-12-09T04:51:47.770889+00:00", "meta": {"OBJECT_NAME": "FENGYUN 1C DEB", "OBJECT_ID": "1999-025ANR", "EPOCH": "2025-12-08T12:02:17.980800", "MEAN_MOTION": 14.09661168, "ECCENTRICITY": 0.01206479, "INCLINATION": 99.2924, "RA_OF_ASC_NODE": 325.1846, "ARG_OF_PERICENTER": 108.3833, "MEAN_ANOMALY": 14.3151, "EPHEMERIS_TYPE": 0, "CLASSIFICATION_TYPE": "U", "NORAD_CAT_ID": 30634, "ELEMENT_SET_NO": 999, "REV_AT_EPOCH": 95557, "BSTAR": 0.0027591139, "MEAN_MOTION_DOT": 5.132e-05, "MEAN_MOTION_DDOT": 0}, "tle": {"line1": "1 30634U 99025ANR 25342.50159700  .00005132  00000+0  27591-2 0  9990", "line2": "2 30634  99.2924 325.1846 0120647 108.3833  14.3151 14.09661168955576"}}, "geometry": {"type": "Point", "coordinates": [-70.62136699180948, 74.62072669587259]}}, {"type": "Feature", "properties": {"norad_id": 30639, "name": "FENGYUN 1C DEB", "group": "fengyun-1c-debris", "lat": 2.747329330756446, "lon": -84.51437199946669, "alt_km": 806.3968662754787, "timestamp": "2025-12-09T04:51:47.770899+00:00", "meta": {"OBJECT_NAME": "FENGYUN 1C DEB", "OBJECT_ID": "1999-025ANW", "EPOCH": "2025-12-08T06:14:09.476160", "MEAN_MOTION": 14.32220794, "ECCENTRICITY": 0.00669922, "INCLINATION": 99.0204, "RA_OF_ASC_NODE": 94.0688, "ARG_OF_PERICENTER": 294.2872, "MEAN_ANOMALY": 65.1323, "EPHEMERIS_TYPE": 0, "CLASSIFICATION_TYPE": "U", "NORAD_CAT_ID": 30639, "ELEMENT_SET_NO": 999, "REV_AT_EPOCH": 96655, "BSTAR": 0.0036588497, "MEAN_MOTION_DOT": 0.00010074, "MEAN_MOTION_DDOT": 0}, "tle": {"line1": "1 30639U 99025ANW 25342.25983190  .00010074  00000+0  36588-2 0  9992", "line2": "2 30639  99.0204  94.0688 0066992 294.2872  65.1323 14.32220794966553"}}, "geometry": {"type": "Point", "coordinates": [-84.51437199946669, 2.747329330756446]}}, {"type": "Feature", "properties": {"norad_id": 30640, "name": "FENGYUN 1C DEB", "group": "fengyun-1c-debris", "lat": 0.7701046866492518, "lon": -125.5178796031722, "alt_km": 824.6562463060218, "timestamp": "2025-12-09T04:51:47.770909+00:00", "meta": {"OBJECT_NAME": "FENGYUN 1C DEB", "OBJECT_ID": "1999-025ANX", "EPOCH": "2025-12-08T04:33:15.156000", "MEAN_MOTION": 14.14593899, "ECCENTRICITY": 0.00812608, "INCLINATION": 99.0576, "RA_OF_ASC_NODE": 53.3321, "ARG_OF_PERICENTER": 113.3416, "MEAN_ANOMALY": 309.6273, "EPHEMERIS_TYPE": 0, "CLASSIFICATION_TYPE": "U", "NORAD_CAT_ID": 30640, "ELEMENT_SET_NO": 999, "REV_AT_EPOCH": 96381, "BSTAR": 0.0018631751, "MEAN_MOTION_DOT": 3.651e-05, "MEAN_MOTION_DDOT": 0}, "tle": {"line1": "1 30640U 99025ANX 25342.18975875  .00003651  00000+0  18632-2 0  9990", "line2": "2 30640  99.0576  53.3321 0081260 113.3416 309.6273 14.14593899963814"}}, "geometry": {"type": "Point", "coordinates": [-125.5178796031722, 0.7701046866492518]}}, {"type": "Feature", "properties": {"norad_id": 30641, "name": "FENGYUN 1C DEB", "group": "fengyun-1c-debris", "lat": 26.568658689980865, "lon": -87.33080174182763, "alt_km": 664.2767647660266, "timestamp": "2025-12-09T04:51:47.770919+00:00", "meta": {"OBJECT_NAME": "FENGYUN 1C DEB", "OBJECT_ID": "1999-025ANY", "EPOCH": "2025-12-08T19:14:48.630336", "MEAN_MOTION": 14.78914798, "ECCENTRICITY": 0.0136065, "INCLINATION": 98.9421, "RA_OF_ASC_NODE": 276.7402, "ARG_OF_PERICENTER": 138.9481, "MEAN_ANOMALY": 277.5159, "EPHEMERIS_TYPE": 0, "CLASSIFICATION_TYPE": "U", "NORAD_CAT_ID": 30641, "ELEMENT_SET_NO": 999, "REV_AT_EPOCH": 474, "BSTAR": 0.00071007, "MEAN_MOTION_DOT": 6.053e-05, "MEAN_MOTION_DDOT": 0}, "tle": {"line1": "1 30641U 99025ANY 25342.80195174  .00006053  00000+0  71007-3 0  9991", "line2": "2 30641  98.9421 276.7402 0136065 138.9481 277.5159 14.78914798  4741"}}, "geometry": {"type": "Point", "coordinates": [-87.33080174182763, 26.568658689980865]}}, {"type": "Feature", "properties": {"norad_id": 30646, "name": "FENGYUN 1C DEB", "group": "fengyun-1c-debris", "lat": -70.60555178544745, "lon": 29.506635923916715, "alt_km": 882.3487405831429, "timestamp": "2025-12-09T04:51:47.770929+00:00", "meta": {"OBJECT_NAME": "FENGYUN 1C DEB", "OBJECT_ID": "1999-025APD", "EPOCH": "2025-12-08T18:59:07.449216", "MEAN_MOTION": 14.09639874, "ECCENTRICITY": 0.0048416, "INCLINATION": 98.6522, "RA_OF_ASC_NODE": 3.4841, "ARG_OF_PERICENTER": 43.2978, "MEAN_ANOMALY": 317.1982, "EPHEMERIS_TYPE": 0, "CLASSIFICATION_TYPE": "U", "NORAD_CAT_ID": 30646, "ELEMENT_SET_NO": 999, "REV_AT_EPOCH": 96549, "BSTAR": 0.0012314, "MEAN_MOTION_DOT": 2.14e-05, "MEAN_MOTION_DDOT": 0}, "tle": {"line1": "1 30646U 99025APD 25342.79105844  .00002140  00000+0  12314-2 0  9997", "line2": "2 30646  98.6522   3.4841 0048416  43.2978 317.1982 14.09639874965494"}}, "geometry": {"type": "Point", "coordinates": [29.506635923916715, -70.60555178544745]}}, {"type": "Feature", "properties": {"norad_id": 30647, "name": "FENGYUN 1C DEB", "group": "fengyun-1c-debris", "lat": 27.463246982199173, "lon": 99.69194545720897, "alt_km": 686.6767901798967, "timestamp": "2025-12-09T04:51:47.770939+00:00", "meta": {"OBJECT_NAME": "FENGYUN 1C DEB", "OBJECT_ID": "1999-025APE", "EPOCH": "2025-12-08T14:08:38.652864", "MEAN_MOTION": 14.56346619, "ECCENTRICITY": 0.0028934, "INCLINATION": 98.9892, "RA_OF_ASC_NODE": 274.3121, "ARG_OF_PERICENTER": 187.4454, "MEAN_ANOMALY": 351.2018, "EPHEMERIS_TYPE": 0, "CLASSIFICATION_TYPE": "U", "NORAD_CAT_ID": 30647, "ELEMENT_SET_NO": 999, "REV_AT_EPOCH": 97928, "BSTAR": 0.0033052, "MEAN_MOTION_DOT": 0.00014711, "MEAN_MOTION_DDOT": 0}, "tle": {"line1": "1 30647U 99025APE 25342.58933626  .00014711  00000+0  33052-2 0  9991", "line2": "2 30647  98.9892 274.3121 0028934 187.4454 351.2018 14.56346619979286"}}, "geometry": {"type": "Point", "coordinates": [99.69194545720897, 27.463246982199173]}}]}